{
  "type": "FeatureCollection",
  "features": [
    {
      "type": "Feature",
      "properties": {
        "norad_id": 15362,
        "name": "NOVA 3",
        "group": "nnss",
        "lat": 20.550244528884367,
        "lon": -99.26983338407561,
        "alt_km": 1189.1870636023586,
        "timestamp": "2025-12-25T11:37:44.703920+00:00",
        "meta_object_name": "NOVA 3",
        "meta_object_id": "1984-110A",
        "meta_epoch": "2025-12-25T05:38:53.420064",
        "meta_mean_motion": 13.23046152,
        "meta_eccentricity": 0.0029863,
        "meta_inclination": 90.1217,
        "meta_ra_of_asc_node": 80.6816,
        "meta_arg_of_pericenter": 295.8842,
        "meta_mean_anomaly": 117.4355,
        "meta_ephemeris_type": 0,
        "meta_classification_type": "U",
        "meta_norad_cat_id": 15362,
        "meta_element_set_no": 999,
        "meta_rev_at_epoch": 98864,
        "meta_bstar": 0.00013404,
        "meta_mean_motion_dot": 6.5e-07,
        "meta_mean_motion_ddot": 0,
        "tle_line1": "1 15362U 84110A   25359.23534051  .00000065  00000+0  13404-3 0  9993",
        "tle_line2": "2 15362  90.1217  80.6816 0029863 295.8842 117.4355 13.23046152988642"
      },
      "geometry": {
        "type": "Point",
        "coordinates": [
          -99.26983338407561,
          20.550244528884367
        ]
      }
    },
    {
      "type": "Feature",
      "properties": {
        "norad_id": 15935,
        "name": "OSCAR 30",
        "group": "nnss",
        "lat": 60.58133506440796,
        "lon": -79.65144208357007,
        "alt_km": 1075.1633860312477,
        "timestamp": "2025-12-25T11:37:44.703930+00:00",
        "meta_object_name": "OSCAR 30",
        "meta_object_id": "1985-066A",
        "meta_epoch": "2025-12-25T01:06:57.917952",
        "meta_mean_motion": 13.36080406,
        "meta_eccentricity": 0.0168861,
        "meta_inclination": 90.1652,
        "meta_ra_of_asc_node": 100.0483,
        "meta_arg_of_pericenter": 49.502,
        "meta_mean_anomaly": 122.3469,
        "meta_ephemeris_type": 0,
        "meta_classification_type": "U",
        "meta_norad_cat_id": 15935,
        "meta_element_set_no": 999,
        "meta_rev_at_epoch": 96617,
        "meta_bstar": 0.00021168,
        "meta_mean_motion_dot": 1.27e-06,
        "meta_mean_motion_ddot": 0,
        "tle_line1": "1 15935U 85066A   25359.04650368  .00000127  00000+0  21168-3 0  9994",
        "tle_line2": "2 15935  90.1652 100.0483 0168861  49.5020 122.3469 13.36080406966171"
      },
      "geometry": {
        "type": "Point",
        "coordinates": [
          -79.65144208357007,
          60.58133506440796
        ]
      }
    },
    {
      "type": "Feature",
      "properties": {
        "norad_id": 15936,
        "name": "OSCAR 24",
        "group": "nnss",
        "lat": -7.898523189415588,
        "lon": -87.49404812556934,
        "alt_km": 1214.3202688829224,
        "timestamp": "2025-12-25T11:37:44.703941+00:00",
        "meta_object_name": "OSCAR 24",
        "meta_object_id": "1985-066B",
        "meta_epoch": "2025-12-24T20:54:20.922336",
        "meta_mean_motion": 13.35937478,
        "meta_eccentricity": 0.01700665,
        "meta_inclination": 90.1791,
        "meta_ra_of_asc_node": 92.52,
        "meta_arg_of_pericenter": 56.4546,
        "meta_mean_anomaly": 61.219,
        "meta_ephemeris_type": 0,
        "meta_classification_type": "U",
        "meta_norad_cat_id": 15936,
        "meta_element_set_no": 999,
        "meta_rev_at_epoch": 96805,
        "meta_bstar": 0.00015449613,
        "meta_mean_motion_dot": 9.5e-07,
        "meta_mean_motion_ddot": 0,
        "tle_line1": "1 15936U 85066B   25358.87107549  .00000095  00000+0  15450-3 0  9994",
        "tle_line2": "2 15936  90.1791  92.5200 0170066  56.4546  61.2190 13.35937478968058"
      },
      "geometry": {
        "type": "Point",
        "coordinates": [
          -87.49404812556934,
          -7.898523189415588
        ]
      }
    },
    {
      "type": "Feature",
      "properties": {
        "norad_id": 17070,
        "name": "POLAR BEAR",
        "group": "nnss",
        "lat": 23.22720321900745,
        "lon": -176.57230311303888,
        "alt_km": 964.6981258861224,
        "timestamp": "2025-12-25T11:37:44.703951+00:00",
        "meta_object_name": "POLAR BEAR",
        "meta_object_id": "1986-088A",
        "meta_epoch": "2025-12-25T00:02:02.554080",
        "meta_mean_motion": 13.75253296,
        "meta_eccentricity": 0.0041287,
        "meta_inclination": 89.617,
        "meta_ra_of_asc_node": 183.2827,
        "meta_arg_of_pericenter": 83.9988,
        "meta_mean_anomaly": 69.2776,
        "meta_ephemeris_type": 0,
        "meta_classification_type": "U",
        "meta_norad_cat_id": 17070,
        "meta_element_set_no": 999,
        "meta_rev_at_epoch": 96147,
        "meta_bstar": 0.00010005,
        "meta_mean_motion_dot": 1.08e-06,
        "meta_mean_motion_ddot": 0,
        "tle_line1": "1 17070U 86088A   25359.00141845  .00000108  00000+0  10005-3 0  9999",
        "tle_line2": "2 17070  89.6170 183.2827 0041287  83.9988  69.2776 13.75253296961473"
      },
      "geometry": {
        "type": "Point",
        "coordinates": [
          -176.57230311303888,
          23.22720321900745
        ]
      }
    },
    {
      "type": "Feature",
      "properties": {
        "norad_id": 18361,
        "name": "OSCAR 27",
        "group": "nnss",
        "lat": -28.51136158706414,
        "lon": 79.95183214225928,
        "alt_km": 1159.811822603182,
        "timestamp": "2025-12-25T11:37:44.703961+00:00",
        "meta_object_name": "OSCAR 27",
        "meta_object_id": "1987-080A",
        "meta_epoch": "2025-12-25T02:50:43.252224",
        "meta_mean_motion": 13.44909221,
        "meta_eccentricity": 0.0103957,
        "meta_inclination": 90.3736,
        "meta_ra_of_asc_node": 79.7351,
        "meta_arg_of_pericenter": 188.1847,
        "meta_mean_anomaly": 171.7609,
        "meta_ephemeris_type": 0,
        "meta_classification_type": "U",
        "meta_norad_cat_id": 18361,
        "meta_element_set_no": 999,
        "meta_rev_at_epoch": 87723,
        "meta_bstar": 0.00017449,
        "meta_mean_motion_dot": 1.14e-06,
        "meta_mean_motion_ddot": 0,
        "tle_line1": "1 18361U 87080A   25359.11855616  .00000114  00000+0  17449-3 0  9992",
        "tle_line2": "2 18361  90.3736  79.7351 0103957 188.1847 171.7609 13.44909221877236"
      },
      "geometry": {
        "type": "Point",
        "coordinates": [
          79.95183214225928,
          -28.51136158706414
        ]
      }
    },
    {
      "type": "Feature",
      "properties": {
        "norad_id": 18362,
        "name": "OSCAR 29",
        "group": "nnss",
        "lat": -36.89980665787655,
        "lon": 80.49041073951074,
        "alt_km": 1128.8849871867533,
        "timestamp": "2025-12-25T11:37:44.703972+00:00",
        "meta_object_name": "OSCAR 29",
        "meta_object_id": "1987-080B",
        "meta_epoch": "2025-12-25T00:10:49.420416",
        "meta_mean_motion": 13.44450714,
        "meta_eccentricity": 0.0104754,
        "meta_inclination": 90.3749,
        "meta_ra_of_asc_node": 80.1909,
        "meta_arg_of_pericenter": 211.66,
        "meta_mean_anomaly": 322.9629,
        "meta_ephemeris_type": 0,
        "meta_classification_type": "U",
        "meta_norad_cat_id": 18362,
        "meta_element_set_no": 999,
        "meta_rev_at_epoch": 87674,
        "meta_bstar": 0.0001663,
        "meta_mean_motion_dot": 1.08e-06,
        "meta_mean_motion_ddot": 0,
        "tle_line1": "1 18362U 87080B   25359.00751644  .00000108  00000+0  16630-3 0  9991",
        "tle_line2": "2 18362  90.3749  80.1909 0104754 211.6600 322.9629 13.44450714876746"
      },
      "geometry": {
        "type": "Point",
        "coordinates": [
          80.49041073951074,
          -36.89980665787655
        ]
      }
    },
    {
      "type": "Feature",
      "properties": {
        "norad_id": 19070,
        "name": "OSCAR 23",
        "group": "nnss",
        "lat": 51.78267671496023,
        "lon": 16.38012705026703,
        "alt_km": 1154.4394316345097,
        "timestamp": "2025-12-25T11:37:44.703982+00:00",
        "meta_object_name": "OSCAR 23",
        "meta_object_id": "1988-033A",
        "meta_epoch": "2025-12-25T02:38:09.075264",
        "meta_mean_motion": 13.27789056,
        "meta_eccentricity": 0.0190489,
        "meta_inclination": 90.3203,
        "meta_ra_of_asc_node": 16.7755,
        "meta_arg_of_pericenter": 145.6115,
        "meta_mean_anomaly": 278.2947,
        "meta_ephemeris_type": 0,
        "meta_classification_type": "U",
        "meta_norad_cat_id": 19070,
        "meta_element_set_no": 999,
        "meta_rev_at_epoch": 82417,
        "meta_bstar": 0.00010293,
        "meta_mean_motion_dot": 6.1e-07,
        "meta_mean_motion_ddot": 0,
        "tle_line1": "1 19070U 88033A   25359.10982726  .00000061  00000+0  10293-3 0  9992",
        "tle_line2": "2 19070  90.3203  16.7755 0190489 145.6115 278.2947 13.27789056824170"
      },
      "geometry": {
        "type": "Point",
        "coordinates": [
          16.38012705026703,
          51.78267671496023
        ]
      }
    }
  ]
}